{
  "type": "FeatureCollection",
  "features": [
    {
      "type": "Feature",
      "properties": {
        "norad_id": 34681,
        "name": "COSMOS 2251 DEB",
        "group": "cosmos-2251-debris",
        "lat": 24.848475443895804,
        "lon": -79.12108260072411,
        "alt_km": 607.8616283254341,
        "timestamp": "2025-12-21T09:37:23.049850+00:00",
        "meta_object_name": "COSMOS 2251 DEB",
        "meta_object_id": "1993-036YB",
        "meta_epoch": "2025-12-20T05:03:03.083904",
        "meta_mean_motion": 14.8337722,
        "meta_eccentricity": 0.00256787,
        "meta_inclination": 74.0634,
        "meta_ra_of_asc_node": 275.6275,
        "meta_arg_of_pericenter": 331.3833,
        "meta_mean_anomaly": 179.5165,
        "meta_ephemeris_type": 0,
        "meta_classification_type": "U",
        "meta_norad_cat_id": 34681,
        "meta_element_set_no": 999,
        "meta_rev_at_epoch": 89381,
        "meta_bstar": 0.00092860454,
        "meta_mean_motion_dot": 7.634e-05,
        "meta_mean_motion_ddot": 0,
        "tle_line1": "1 34681U 93036YB  25354.21045236  .00007634  00000+0  92860-3 0  9992",
        "tle_line2": "2 34681  74.0634 275.6275 0025678 331.3833 179.5165 14.83377220893814"
      },
      "geometry": {
        "type": "Point",
        "coordinates": [
          -79.12108260072411,
          24.848475443895804
        ]
      }
    },
    {
      "type": "Feature",
      "properties": {
        "norad_id": 34682,
        "name": "COSMOS 2251 DEB",
        "group": "cosmos-2251-debris",
        "lat": 71.31713938514162,
        "lon": -171.32149923042414,
        "alt_km": 691.2808396464634,
        "timestamp": "2025-12-21T09:37:23.049859+00:00",
        "meta_object_name": "COSMOS 2251 DEB",
        "meta_object_id": "1993-036YC",
        "meta_epoch": "2025-12-20T22:27:00.828864",
        "meta_mean_motion": 14.58946601,
        "meta_eccentricity": 0.0017936,
        "meta_inclination": 74.0397,
        "meta_ra_of_asc_node": 67.3794,
        "meta_arg_of_pericenter": 199.7357,
        "meta_mean_anomaly": 336.1903,
        "meta_ephemeris_type": 0,
        "meta_classification_type": "U",
        "meta_norad_cat_id": 34682,
        "meta_element_set_no": 999,
        "meta_rev_at_epoch": 88805,
        "meta_bstar": 0.00046702,
        "meta_mean_motion_dot": 2.166e-05,
        "meta_mean_motion_ddot": 0,
        "tle_line1": "1 34682U 93036YC  25354.93542626  .00002166  00000+0  46702-3 0  9996",
        "tle_line2": "2 34682  74.0397  67.3794 0017936 199.7357 336.1903 14.58946601888056"
      },
      "geometry": {
        "type": "Point",
        "coordinates": [
          -171.32149923042414,
          71.31713938514162
        ]
      }
    },
    {
      "type": "Feature",
      "properties": {
        "norad_id": 34683,
        "name": "COSMOS 2251 DEB",
        "group": "cosmos-2251-debris",
        "lat": 62.5031992936355,
        "lon": 108.99450855217447,
        "alt_km": 678.7686268991247,
        "timestamp": "2025-12-21T09:37:23.049870+00:00",
        "meta_object_name": "COSMOS 2251 DEB",
        "meta_object_id": "1993-036YD",
        "meta_epoch": "2025-12-20T15:57:48.625632",
        "meta_mean_motion": 14.64579206,
        "meta_eccentricity": 0.00177258,
        "meta_inclination": 74.0297,
        "meta_ra_of_asc_node": 77.0284,
        "meta_arg_of_pericenter": 191.9908,
        "meta_mean_anomaly": 317.5627,
        "meta_ephemeris_type": 0,
        "meta_classification_type": "U",
        "meta_norad_cat_id": 34683,
        "meta_element_set_no": 999,
        "meta_rev_at_epoch": 88464,
        "meta_bstar": 0.00073577789,
        "meta_mean_motion_dot": 3.886e-05,
        "meta_mean_motion_ddot": 0,
        "tle_line1": "1 34683U 93036YD  25354.66514613  .00003886  00000+0  73578-3 0  9993",
        "tle_line2": "2 34683  74.0297  77.0284 0017725 191.9908 317.5627 14.64579206884647"
      },
      "geometry": {
        "type": "Point",
        "coordinates": [
          108.99450855217447,
          62.5031992936355
        ]
      }
    },
    {
      "type": "Feature",
      "properties": {
        "norad_id": 34685,
        "name": "COSMOS 2251 DEB",
        "group": "cosmos-2251-debris",
        "lat": 0.21931674694485928,
        "lon": 132.376811335872,
        "alt_km": 709.1602559906814,
        "timestamp": "2025-12-21T09:37:23.049880+00:00",
        "meta_object_name": "COSMOS 2251 DEB",
        "meta_object_id": "1993-036YF",
        "meta_epoch": "2025-12-21T03:52:45.370272",
        "meta_mean_motion": 14.57573561,
        "meta_eccentricity": 0.0014262,
        "meta_inclination": 74.0293,
        "meta_ra_of_asc_node": 132.7689,
        "meta_arg_of_pericenter": 237.5359,
        "meta_mean_anomaly": 307.3846,
        "meta_ephemeris_type": 0,
        "meta_classification_type": "U",
        "meta_norad_cat_id": 34685,
        "meta_element_set_no": 999,
        "meta_rev_at_epoch": 88654,
        "meta_bstar": 0.00067584,
        "meta_mean_motion_dot": 3.053e-05,
        "meta_mean_motion_ddot": 0,
        "tle_line1": "1 34685U 93036YF  25355.16163623  .00003053  00000+0  67584-3 0  9998",
        "tle_line2": "2 34685  74.0293 132.7689 0014262 237.5359 307.3846 14.57573561886544"
      },
      "geometry": {
        "type": "Point",
        "coordinates": [
          132.376811335872,
          0.21931674694485928
        ]
      }
    },
    {
      "type": "Feature",
      "properties": {
        "norad_id": 34689,
        "name": "COSMOS 2251 DEB",
        "group": "cosmos-2251-debris",
        "lat": -7.308553675021326,
        "lon": -153.7640245832829,
        "alt_km": 841.840790932074,
        "timestamp": "2025-12-21T09:37:23.049889+00:00",
        "meta_object_name": "COSMOS 2251 DEB",
        "meta_object_id": "1993-036YK",
        "meta_epoch": "2025-12-15T15:20:16.539648",
        "meta_mean_motion": 14.04491905,
        "meta_eccentricity": 0.02275051,
        "meta_inclination": 74.0901,
        "meta_ra_of_asc_node": 218.3502,
        "meta_arg_of_pericenter": 286.6099,
        "meta_mean_anomaly": 101.262,
        "meta_ephemeris_type": 0,
        "meta_classification_type": "U",
        "meta_norad_cat_id": 34689,
        "meta_element_set_no": 999,
        "meta_rev_at_epoch": 84382,
        "meta_bstar": 0.0020174062,
        "meta_mean_motion_dot": 4.031e-05,
        "meta_mean_motion_ddot": 0,
        "tle_line1": "1 34689U 93036YK  25349.63908032  .00004031  00000+0  20174-2 0  9998",
        "tle_line2": "2 34689  74.0901 218.3502 0227505 286.6099 101.2620 14.04491905843829"
      },
      "geometry": {
        "type": "Point",
        "coordinates": [
          -153.7640245832829,
          -7.308553675021326
        ]
      }
    },
    {
      "type": "Feature",
      "properties": {
        "norad_id": 34721,
        "name": "COSMOS 2251 DEB",
        "group": "cosmos-2251-debris",
        "lat": 37.897631064949444,
        "lon": 118.24862948608443,
        "alt_km": 949.4618620007059,
        "timestamp": "2025-12-21T09:37:23.049900+00:00",
        "meta_object_name": "COSMOS 2251 DEB",
        "meta_object_id": "1993-036YP",
        "meta_epoch": "2025-12-21T03:52:51.241152",
        "meta_mean_motion": 13.96883569,
        "meta_eccentricity": 0.022301,
        "meta_inclination": 73.9233,
        "meta_ra_of_asc_node": 311.6355,
        "meta_arg_of_pericenter": 249.0596,
        "meta_mean_anomaly": 130.8495,
        "meta_ephemeris_type": 0,
        "meta_classification_type": "U",
        "meta_norad_cat_id": 34721,
        "meta_element_set_no": 999,
        "meta_rev_at_epoch": 85267,
        "meta_bstar": 0.00073679,
        "meta_mean_motion_dot": 1.239e-05,
        "meta_mean_motion_ddot": 0,
        "tle_line1": "1 34721U 93036YP  25355.16170418  .00001239  00000+0  73679-3 0  9995",
        "tle_line2": "2 34721  73.9233 311.6355 0223010 249.0596 130.8495 13.96883569852679"
      },
      "geometry": {
        "type": "Point",
        "coordinates": [
          118.24862948608443,
          37.897631064949444
        ]
      }
    },
    {
      "type": "Feature",
      "properties": {
        "norad_id": 34722,
        "name": "COSMOS 2251 DEB",
        "group": "cosmos-2251-debris",
        "lat": 59.23224006352965,
        "lon": 111.5430217093138,
        "alt_km": 919.7898384305936,
        "timestamp": "2025-12-21T09:37:23.049910+00:00",
        "meta_object_name": "COSMOS 2251 DEB",
        "meta_object_id": "1993-036YQ",
        "meta_epoch": "2025-12-20T21:18:16.860960",
        "meta_mean_motion": 14.11957143,
        "meta_eccentricity": 0.0166722,
        "meta_inclination": 73.873,
        "meta_ra_of_asc_node": 321.5344,
        "meta_arg_of_pericenter": 245.6675,
        "meta_mean_anomaly": 144.4156,
        "meta_ephemeris_type": 0,
        "meta_classification_type": "U",
        "meta_norad_cat_id": 34722,
        "meta_element_set_no": 999,
        "meta_rev_at_epoch": 86360,
        "meta_bstar": 0.00053648,
        "meta_mean_motion_dot": 1.092e-05,
        "meta_mean_motion_ddot": 0,
        "tle_line1": "1 34722U 93036YQ  25354.88769515  .00001092  00000+0  53648-3 0  9997",
        "tle_line2": "2 34722  73.8730 321.5344 0166722 245.6675 144.4156 14.11957143863603"
      },
      "geometry": {
        "type": "Point",
        "coordinates": [
          111.5430217093138,
          59.23224006352965
        ]
      }
    }
  ]
}